[{"OBJECT_NAME":"STARLINK-32520","OBJECT_ID":"2024-213P","EPOCH":"2026-03-09T12:21:50.121216","MEAN_MOTION":15.30215702,"ECCENTRICITY":8.918e-5,"INCLINATION":53.158,"RA_OF_ASC_NODE":169.2538,"ARG_OF_PERICENTER":108.0438,"MEAN_ANOMALY":252.066,"EPHEMERIS_TYPE":0,"CLASSIFICATION_TYPE":"U","NORAD_CAT_ID":62021,"ELEMENT_SET_NO":999,"REV_AT_EPOCH":7312,"BSTAR":0.00085823847,"MEAN_MOTION_DOT":0.00025158,"MEAN_MOTION_DDOT":0},{"OBJECT_NAME":"OBJECT N","OBJECT_ID":"2019-093N","EPOCH":"2026-03-09T21:41:56.087232","MEAN_MOTION":15.29897693,"ECCENTRICITY":0.0006278,"INCLINATION":98.0505,"RA_OF_ASC_NODE":226.9456,"ARG_OF_PERICENTER":33.3806,"MEAN_ANOMALY":326.7828,"EPHEMERIS_TYPE":0,"CLASSIFICATION_TYPE":"U","NORAD_CAT_ID":44891,"ELEMENT_SET_NO":999,"REV_AT_EPOCH":33957,"BSTAR":0.0010567776,"MEAN_MOTION_DOT":0.00030617,"MEAN_MOTION_DDOT":0}]
